HST                     
1 20580U 90037B   26185.74496647  .00010489  00000+0  33264-3 0  9995
2 20580  28.4738 320.5598 0001726 359.9389   0.1206 15.30968798791263
POLAR                   
1 23802U 96013A   26184.98221311  .00000203  00000+0  00000+0 0  9995
2 23802  79.8755 226.8535 6487344 208.5029  90.9548  1.29846112145077
SWAS                    
1 25560U 98071A   26185.97179579  .00003411  00000+0  21747-3 0  9991
2 25560  69.8940 181.6522 0008222 241.6864 118.3471 15.09709443499959
CXO                     
1 25867U 99040B   26187.88935528  .00000762  00000+0  00000+0 0  9995
2 25867  56.4267 116.1509 7809224 310.0350   0.5660  0.37802688 17396
XMM-NEWTON              
1 25989U 99066A   26181.31376484  .00000075  00000+0  00000+0 0  9997
2 25989  64.4187 282.8185 4670815  64.6474   0.0796  0.50127122 23075
TERRA                   
1 25994U 99068A   26186.16789484  .00000558  00000+0  12254-3 0  9995
2 25994  97.9446 235.0004 0002903 143.1240 291.7934 14.61118688412234
CLUSTER II-FM7 (SAMBA)  
1 26410U 00041A   26188.21797159  .00007566  00000+0  00000+0 0  9996
2 26410 149.8716  54.4790 9079263 271.8893 359.5006  0.44837774 20390
CLUSTER II-FM8 (TANGO)  
1 26464U 00045B   26184.19681525  .00012165  00000+0  00000+0 0  9992
2 26464 150.1065  54.7656 9078554 272.0035   2.3073  0.44420887 20387
ODIN                    
1 26702U 01007A   26186.02648908  .00458636  00000+0  19689-2 0  9991
2 26702  97.3753 228.2026 0005309 134.4495 225.7210 15.83903540392216
TIMED                   
1 26998U 01055B   26186.00540794  .00001403  00000+0  13083-3 0  9992
2 26998  74.0660 199.1407 0001946 310.7154  49.3862 14.95330390333481
CORIOLIS                
1 27640U 03001A   26186.02481649  .00000134  00000+0  83337-4 0  9995
2 27640  98.7128 192.6373 0014439 157.0999 203.0824 14.19949918216753
SORCE                   
1 27651U 03004A   26186.20358091  .00004612  00000+0  33924-3 0  9995
2 27651  39.9893 158.8788 0017579 185.9444 174.1143 15.03805062274614
MOST                    
1 27843U 03031D   26186.02164964  .00000098  00000+0  64940-4 0  9999
2 27843  98.7046 193.4986 0009474 194.5645 165.5261 14.21326369193240
SCISAT 1                
1 27858U 03036A   26185.85076496  .00000927  00000+0  12294-3 0  9997
2 27858  73.9297 136.2477 0007887 205.8103 154.2681 14.81470217234065
SWIFT                   
1 28485U 04047A   26185.92335684  .00087977  00000+0  67943-3 0  9993
2 28485  20.5532  47.9146 0000856 222.0058 138.0322 15.70170079189650
HINODE (SOLAR-B)        
1 29479U 06041A   26185.76326957  .00001113  00000+0  19952-3 0  9993
2 29479  98.0545 201.6566 0016295 229.0955 130.8839 14.68649869 57459
SHIJIAN-6 02A (SJ-6 02A)
1 29505U 06046A   26186.29641941  .00016264  00000+0  82108-3 0  9996
2 29505  97.6345 227.5001 0004817  85.5655 274.6128 15.17175006 75014
SHIJIAN-6 02B (SJ-6 02B)
1 29506U 06046B   26186.34076748  .00001801  00000+0  14400-3 0  9991
2 29506  97.7147 215.2875 0014637   8.2682 351.8780 15.01423448 73460
FGRST (GLAST)           
1 33053U 08029A   26186.10371348  .00004771  00000+0  17748-3 0  9991
2 33053  25.5822  80.0683 0008103 174.9128 185.1493 15.24035495998576
SDO                     
1 36395U 10005A   26183.25044652 -.00000081  00000+0  00000+0 0  9998
2 36395  34.6806  86.1151 0001496  53.7669 128.3250  1.00270409 60216
CRYOSAT 2               
1 36508U 10013A   26186.27642330  .00000203  00000+0  49683-4 0  9995
2 36508  92.0360 281.6991 0002239  97.0172 263.1290 14.51896226860700
X-SAT                   
1 37389U 11015C   26186.26826934  .00000521  00000+0  23907-3 0  9992
2 37389  98.3522 162.4314 0012899 292.9689  67.0130 14.25212920790254
GCOM-W1 (SHIZUKU)       
1 38337U 12025A   26185.81667468  .00000654  00000+0  15514-3 0  9995
2 38337  98.2023 126.1057 0001477  66.2598 348.2333 14.57142131751601
NUSTAR                  
1 38358U 12031A   26186.33336806  .00009865  00000+0  55224-3 0  9997
2 38358   6.0254 258.0217 0007705  13.4678 274.3859 15.08981368  1300
NEOSSAT                 
1 39089U 13009D   26185.97954923  .00000230  00000+0  94094-4 0  9996
2 39089  98.4185   5.5896 0010790 187.2509 172.8523 14.35833233699296
BRITE-AUSTRIA           
1 39091U 13009F   26185.96931982  .00000252  00000+0  10033-3 0  9992
2 39091  98.4004   4.9656 0010116 180.2951 179.8232 14.36549756699606
IRIS                    
1 39197U 13033A   26186.01006684  .00001469  00000+0  17412-3 0  9994
2 39197  97.9322  25.2309 0022962 260.3214  99.5407 14.85923527703025
HISAKI (SPRINT-A)       
1 39253U 13049A   26186.17274643  .00000109  00000+0  58326-4 0  9993
2 39253  29.7185 128.5675 0136896 162.6687 197.8617 13.55546124633860
CASSIOPE                
1 39265U 13055A   26186.19346668  .00050413 -20824-6  54352-3 0  9993
2 39265  80.9129  44.8269 0285623   1.7554 358.4608 15.26865370670412
STSAT-3                 
1 39422U 13066G   26186.22360079  .00003972  00000+0  30056-3 0  9995
2 39422  97.6212 155.8223 0009241 346.4343  13.6632 15.02856628686912
