OBJECT_NAME,OBJECT_ID,EPOCH,MEAN_MOTION,ECCENTRICITY,INCLINATION,RA_OF_ASC_NODE,ARG_OF_PERICENTER,MEAN_ANOMALY,EPHEMERIS_TYPE,CLASSIFICATION_TYPE,NORAD_CAT_ID,ELEMENT_SET_NO,REV_AT_EPOCH,BSTAR,MEAN_MOTION_DOT,MEAN_MOTION_DDOT
HST,1990-037B,2026-07-04T17:52:45.103008,15.30968798,.0001726,28.4738,320.5598,359.9389,0.1206,0,U,20580,999,79126,.33264073E-3,.10489E-3,0
POLAR,1996-013A,2026-07-03T23:34:23.211840,1.29846112,.6487344,79.8755,226.8535,208.5029,90.9548,0,U,23802,999,14507,0,.203E-5,0
SWAS,1998-071A,2026-07-04T23:19:23.156256,15.09709443,.00082228,69.8940,181.6522,241.6864,118.3471,0,U,25560,999,49995,.21747207E-3,.3411E-4,0
CXO,1999-040B,2026-07-06T21:20:40.296192,0.37802688,.7809224,56.4267,116.1509,310.0350,0.5660,0,U,25867,999,1739,0,.762E-5,0
XMM-NEWTON,1999-066A,2026-06-30T07:31:49.282176,0.50127122,.46708159,64.4187,282.8185,64.6474,0.0796,0,U,25989,999,2307,0,.75E-6,0
TERRA,1999-068A,2026-07-05T04:01:46.114176,14.61118688,.00029039,97.9446,235.0004,143.1240,291.7934,0,U,25994,999,41223,.12253734E-3,.558E-5,0
CLUSTER II-FM7 (SAMBA),2000-041A,2026-07-07T05:13:52.745376,0.44837774,.9079263,149.8716,54.4790,271.8893,359.5006,0,U,26410,999,2039,0,.7566E-4,0
CLUSTER II-FM8 (TANGO),2000-045B,2026-07-03T04:43:24.837600,0.44420887,.90785547,150.1065,54.7656,272.0035,2.3073,0,U,26464,999,2038,0,.12165E-3,0
ODIN,2001-007A,2026-07-05T00:38:08.656512,15.83903540,.00053099,97.3753,228.2026,134.4495,225.7210,0,U,26702,999,39221,.19688952E-2,.458636E-2,0
TIMED,2001-055B,2026-07-05T00:07:47.246016,14.95330390,.00019467,74.0660,199.1407,310.7154,49.3862,0,U,26998,999,33348,.13082935E-3,.1403E-4,0
CORIOLIS,2003-001A,2026-07-05T00:35:44.144736,14.19949918,.00144391,98.7128,192.6373,157.0999,203.0824,0,U,27640,999,21675,.83337086E-4,.134E-5,0
SORCE,2003-004A,2026-07-05T04:53:09.390624,15.03805062,.00175792,39.9893,158.8788,185.9444,174.1143,0,U,27651,999,27461,.33923925E-3,.4612E-4,0
MOST,2003-031D,2026-07-05T00:31:10.528896,14.21326369,.00094744,98.7046,193.4986,194.5645,165.5261,0,U,27843,999,19324,.6493973E-4,.98E-6,0
SCISAT 1,2003-036A,2026-07-04T20:25:06.092544,14.81470217,.00078877,73.9297,136.2477,205.8103,154.2681,0,U,27858,999,23406,.12293897E-3,.927E-5,0
SWIFT,2004-047A,2026-07-04T22:09:38.030976,15.70170079,.00008568,20.5532,47.9146,222.0058,138.0322,0,U,28485,999,18965,.67942827E-3,.87977E-3,0
HINODE (SOLAR-B),2006-041A,2026-07-04T18:19:06.490848,14.68649869,.00162958,98.0545,201.6566,229.0955,130.8839,0,U,29479,999,5745,.19952018E-3,.1113E-4,0
SHIJIAN-6 02A (SJ-6 02A),2006-046A,2026-07-05T07:06:50.637024,15.17175006,.00048172,97.6345,227.5001,85.5655,274.6128,0,U,29505,999,7501,.82107812E-3,.16264E-3,0
SHIJIAN-6 02B (SJ-6 02B),2006-046B,2026-07-05T08:10:42.310272,15.01423448,.00146372,97.7147,215.2875,8.2682,351.8780,0,U,29506,999,7346,.14400457E-3,.1801E-4,0
FGRST (GLAST),2008-029A,2026-07-05T02:29:20.844672,15.24035495,.00081039,25.5822,80.0683,174.9128,185.1493,0,U,33053,999,99857,.17748303E-3,.4771E-4,0
SDO,2010-005A,2026-07-02T06:00:38.579328,1.00270409,.0001496,34.6806,86.1151,53.7669,128.3250,0,U,36395,999,6021,0,-.81E-6,0
CRYOSAT 2,2010-013A,2026-07-05T06:38:02.973120,14.51896226,.00022394,92.0360,281.6991,97.0172,263.1290,0,U,36508,999,86070,.49683352E-4,.203E-5,0
X-SAT,2011-015C,2026-07-05T06:26:18.470976,14.25212920,.00128998,98.3522,162.4314,292.9689,67.0130,0,U,37389,999,79025,.23907252E-3,.521E-5,0
GCOM-W1 (SHIZUKU),2012-025A,2026-07-04T19:36:00.692352,14.57142131,.00014777,98.2023,126.1057,66.2598,348.2333,0,U,38337,999,75160,.15513828E-3,.654E-5,0
NUSTAR,2012-031A,2026-07-05T08:00:03.000384,15.08981368,.00077052,6.0254,258.0217,13.4678,274.3859,0,U,38358,999,130,.5522437E-3,.9865E-4,0
NEOSSAT,2013-009D,2026-07-04T23:30:33.053472,14.35833233,.00107906,98.4185,5.5896,187.2509,172.8523,0,U,39089,999,69929,.94094221E-4,.23E-5,0
BRITE-AUSTRIA,2013-009F,2026-07-04T23:15:49.232448,14.36549756,.0010116,98.4004,4.9656,180.2951,179.8232,0,U,39091,999,69960,.10033395E-3,.252E-5,0
IRIS,2013-033A,2026-07-05T00:14:29.774976,14.85923527,.00229626,97.9322,25.2309,260.3214,99.5407,0,U,39197,999,70302,.17412415E-3,.1469E-4,0
HISAKI (SPRINT-A),2013-049A,2026-07-05T04:08:45.291552,13.55546124,.01368965,29.7185,128.5675,162.6687,197.8617,0,U,39253,999,63386,.58326393E-4,.109E-5,0
CASSIOPE,2013-055A,2026-07-05T04:38:35.521152,15.26865370,.02856236,80.9129,44.8269,1.7554,358.4608,0,U,39265,999,67041,.54352016E-3,.50413E-3,-.208245E-6
STSAT-3,2013-066G,2026-07-05T05:21:59.108256,15.02856628,.00092416,97.6212,155.8223,346.4343,13.6632,0,U,39422,999,68691,.30055708E-3,.3972E-4,0
